NORAD_CAT_ID,OBJECT_NAME,OBJECT_TYPE,EPOCH,MEAN_MOTION,ECCENTRICITY,INCLINATION,RA_OF_ASC_NODE,ARG_OF_PERICENTER,MEAN_ANOMALY,BSTAR,MEAN_MOTION_DOT,MEAN_MOTION_DDOT,TLE_LINE0,TLE_LINE1,TLE_LINE2,SEMIMAJOR_AXIS,PERIOD,APOGEE,PERIGEE,DECAYED
52864.0,STARLINK-4267,PAYLOAD,2023-07-16 21:30:33,15.088282,0.0001071,53.2162,44.2251,86.6569,273.4546,-0.00016663,-2.938e-05,0.0,0 STARLINK-4267,1 52864U 22062AL  23197.89622376 -.00002938  00000-0 -16663-3 0  9991,2 52864  53.2162  44.2251 0001071  86.6569 273.4546 15.08828200 60464,6917.916,95.438,540.522,539.041,0.0
52864.0,STARLINK-4267,PAYLOAD,2023-07-17 19:45:57,15.08848817,9.79e-05,53.2165,40.0616,82.9474,277.1629,0.00016278,2.304e-05,0.0,0 STARLINK-4267,1 52864U 22062AL  23198.82357672  .00002304  00000-0  16278-3 0  9996,2 52864  53.2165  40.0616 0000979  82.9474 277.1629 15.08848817 60601,6917.853,95.437,540.396,539.041,0.0
52864.0,STARLINK-4267,PAYLOAD,2023-07-18 22:47:30,15.08842333,9.65e-05,53.2169,35.005,82.5178,277.5924,0.00028294,4.218e-05,0.0,0 STARLINK-4267,1 52864U 22062AL  23199.94966293  .00004218  00000-0  28294-3 0  9992,2 52864  53.2169  35.0050 0000965  82.5178 277.5924 15.08842333 60770,6917.873,95.437,540.406,539.071,0.0
52864.0,STARLINK-4267,PAYLOAD,2023-07-19 17:52:09,15.08832064,0.0001046,53.2179,31.4368,94.3618,265.7493,-3.838e-05,-8.98e-06,0.0,0 STARLINK-4267,1 52864U 22062AL  23200.74455036 -.00000898  00000-0 -38380-4 0  9991,2 52864  53.2179  31.4368 0001046  94.3618 265.7493 15.08832064 60897,6917.905,95.438,540.493,539.046,0.0
52864.0,STARLINK-4267,PAYLOAD,2023-07-20 22:29:04,15.08851255,0.0001103,53.2182,26.0845,121.7629,238.3471,0.00015591,2.195e-05,0.0,0 STARLINK-4267,1 52864U 22062AL  23201.93685762  .00002195  00000-0  15591-3 0  9992,2 52864  53.2182  26.0845 0001103 121.7629 238.3471 15.08851255 61078,6917.846,95.437,540.474,538.948,0.0
52864.0,STARLINK-4267,PAYLOAD,2023-07-21 11:12:10,15.08836061,0.0001118,53.2185,23.7046,123.7182,236.3917,0.00012761,1.743e-05,0.0,0 STARLINK-4267,1 52864U 22062AL  23202.46678793  .00001743  00000-0  12761-3 0  9991,2 52864  53.2185  23.7046 0001118 123.7182 236.3917 15.08836061 61150,6917.892,95.438,540.531,538.984,0.0
52864.0,STARLINK-4267,PAYLOAD,2023-07-24 12:19:54,15.08839389,8.89e-05,53.2183,10.0272,99.9,260.2093,0.00016709,2.372e-05,0.0,0 STARLINK-4267,1 52864U 22062AL  23205.51382857  .00002372  00000-0  16709-3 0  9998,2 52864  53.2183  10.0272 0000889  99.9000 260.2093 15.08839389 61129,6917.882,95.438,540.362,539.132,0.0
52864.0,STARLINK-4267,PAYLOAD,2023-07-25 13:46:05,15.08840719,0.0002294,53.2121,5.2662,104.2724,255.8523,6.5052e-05,7.47e-06,0.0,0 STARLINK-4267,1 52864U 22062AL  23206.57367187  .00000747  00000-0  65052-4 0  9994,2 52864  53.2121   5.2662 0002294 104.2724 255.8523 15.08840719 61289,6917.878,95.438,541.33,538.156,0.0
52864.0,STARLINK-4267,PAYLOAD,2023-07-26 10:26:05,15.08847871,0.000105,53.2183,1.4015,104.8281,255.2828,-4.7307e-06,-3.63e-06,0.0,0 STARLINK-4267,1 52864U 22062AL  23207.43479001 -.00000363  00000-0 -47307-5 0  9999,2 52864  53.2183   1.4015 0001050 104.8281 255.2828 15.08847871 61413,6917.856,95.437,540.448,538.995,0.0
52864.0,STARLINK-4267,PAYLOAD,2023-07-27 10:16:53,15.0883667,0.0001068,53.2198,356.9482,43.952,316.1557,0.00019244,2.776e-05,0.0,0 STARLINK-4267,1 52864U 22062AL  23208.42839512  .00002776  00000-0  19244-3 0  9991,2 52864  53.2198 356.9482 0001068  43.9520 316.1557 15.08836670 62055,6917.891,95.438,540.494,539.017,0.0
52864.0,STARLINK-4267,PAYLOAD,2023-07-27 16:38:26,15.08835146,6.01e-05,53.2189,355.7541,81.8727,278.2333,3.2546e-05,2.3e-06,0.0,0 STARLINK-4267,1 52864U 22062AL  23208.69335701  .00000230  00000-0  32546-4 0  9995,2 52864  53.2189 355.7541 0000601  81.8727 278.2333 15.08835146 61607,6917.895,95.438,540.176,539.344,0.0
52864.0,STARLINK-4267,PAYLOAD,2023-07-28 10:07:40,15.08839005,6.21e-05,53.2189,352.4833,64.3817,295.7239,-2.9704e-05,-7.6e-06,0.0,0 STARLINK-4267,1 52864U 22062AL  23209.42199883 -.00000760  00000-0 -29704-4 0  9998,2 52864  53.2189 352.4833 0000621  64.3817 295.7239 15.08839005 61712,6917.883,95.438,540.178,539.319,0.0
52864.0,STARLINK-4267,PAYLOAD,2023-07-28 16:29:12,15.08843475,5.62e-05,53.2189,351.2943,52.6945,307.4098,1.466e-05,-5.4e-07,0.0,0 STARLINK-4267,1 52864U 22062AL  23209.68695451 -.00000054  00000-0  14660-4 0  9998,2 52864  53.2189 351.2943 0000562  52.6945 307.4098 15.08843475 62246,6917.87,95.437,540.124,539.346,0.0
52864.0,STARLINK-4267,PAYLOAD,2023-07-29 09:58:27,15.08834021,8.57e-05,53.2192,348.0233,81.0288,279.0801,0.0001071,1.417e-05,0.0,0 STARLINK-4267,1 52864U 22062AL  23210.41559888  .00001417  00000-0  10710-3 0  9998,2 52864  53.2192 348.0233 0000857  81.0288 279.0801 15.08834021 62354,6917.899,95.438,540.357,539.171,0.0
52864.0,STARLINK-4267,PAYLOAD,2023-07-30 16:10:46,15.08846059,6.96e-05,53.218,342.373,83.1982,276.9089,9.2764e-05,1.189e-05,0.0,0 STARLINK-4267,1 52864U 22062AL  23211.67415368  .00001189  00000-0  92764-4 0  9997,2 52864  53.2180 342.3730 0000696  83.1982 276.9089 15.08846059 62544,6917.862,95.437,540.208,539.245,0.0
52864.0,STARLINK-4267,PAYLOAD,2023-07-31 08:04:38,15.0883856,7.45e-05,53.2178,339.3997,86.2251,273.8826,0.00011234,1.501e-05,0.0,0 STARLINK-4267,1 52864U 22062AL  23212.33655739  .00001501  00000-0  11234-3 0  9999,2 52864  53.2178 339.3997 0000745  86.2251 273.8826 15.08838560 62644,6917.885,95.438,540.265,539.234,0.0
52864.0,STARLINK-4267,PAYLOAD,2023-08-01 17:27:43,15.08849306,0.0001011,53.2182,333.1553,68.9445,291.1656,7.6329e-05,9.28e-06,0.0,0 STARLINK-4267,1 52864U 22062AL  23213.72759156  .00000928  00000-0  76329-4 0  9990,2 52864  53.2182 333.1553 0001011  68.9445 291.1656 15.08849306 62855,6917.852,95.437,540.416,539.018,0.0
52864.0,STARLINK-4267,PAYLOAD,2023-08-02 15:43:07,15.08849907,0.0001111,53.2189,328.9871,113.7,246.4109,9.4244e-06,-1.38e-06,0.0,0 STARLINK-4267,1 52864U 22062AL  23214.65495051 -.00000138  00000-0  94244-5 0  9995,2 52864  53.2189 328.9871 0001111 113.7000 246.4109 15.08849907 62992,6917.85,95.437,540.484,538.947,0.0
52864.0,STARLINK-4267,PAYLOAD,2023-08-04 10:38:34,15.08822652,0.0001105,53.2181,320.9606,103.7159,256.3957,-8.4586e-05,-1.633e-05,0.0,0 STARLINK-4267,1 52864U 22062AL  23216.44345578 -.00001633  00000-0 -84586-4 0  9991,2 52864  53.2181 320.9606 0001105 103.7159 256.3957 15.08822652 63269,6917.933,95.439,540.563,539.034,0.0
52864.0,STARLINK-4267,PAYLOAD,2023-08-05 10:29:20,15.08837509,0.000113,53.2184,316.5084,64.9895,295.1214,0.00010704,1.416e-05,0.0,0 STARLINK-4267,1 52864U 22062AL  23217.43704826  .00001416  00000-0  10704-3 0  9993,2 52864  53.2184 316.5084 0001130  64.9895 295.1214 15.08837509 63417,6917.888,95.438,540.535,538.971,0.0
52864.0,STARLINK-4267,PAYLOAD,2023-08-05 12:04:43,15.08853747,0.0001153,53.2181,316.2055,84.0323,276.0801,0.00018397,2.642e-05,0.0,0 STARLINK-4267,1 52864U 22062AL  23217.50327573  .00002642  00000-0  18397-3 0  9999,2 52864  53.2181 316.2055 0001153  84.0323 276.0801 15.08853747 63426,6917.838,95.437,540.501,538.906,0.0
52864.0,STARLINK-4267,PAYLOAD,2023-08-05 23:12:25,15.08848444,0.0001256,53.2177,314.1256,71.8176,288.2953,0.00012438,1.693e-05,0.0,0 STARLINK-4267,1 52864U 22062AL  23217.96695990  .00001693  00000-0  12438-3 0  9995,2 52864  53.2177 314.1256 0001256  71.8176 288.2953 15.08848444 63493,6917.855,95.437,540.588,538.851,0.0
52864.0,STARLINK-4267,PAYLOAD,2023-08-06 10:20:08,15.08828936,0.0001294,53.2196,312.0444,98.5439,261.57,0.00020033,2.901e-05,0.0,0 STARLINK-4267,1 52864U 22062AL  23218.43065262  .00002901  00000-0  20033-3 0  9994,2 52864  53.2196 312.0444 0001294  98.5439 261.5700 15.08828936 63566,6917.914,95.438,540.674,538.884,0.0
52864.0,STARLINK-4267,PAYLOAD,2023-08-07 18:07:50,15.08855069,0.0001149,53.2172,306.0965,84.1953,275.917,1.1941e-05,-9.8e-07,0.0,0 STARLINK-4267,1 52864U 22062AL  23219.75544260 -.00000098  00000-0  11941-4 0  9995,2 52864  53.2172 306.0965 0001149  84.1953 275.9170 15.08855069 63761,6917.834,95.437,540.494,538.904,0.0
52864.0,STARLINK-4267,PAYLOAD,2023-08-07 22:54:00,15.08847166,0.0001356,53.2183,305.2023,76.32,283.7943,2.4865e-05,1.08e-06,0.0,0 STARLINK-4267,1 52864U 22062AL  23219.95416783  .00000108  00000-0  24865-4 0  9995,2 52864  53.2183 305.2023 0001356  76.3200 283.7943 15.08847166 63794,6917.858,95.437,540.662,538.785,0.0
52864.0,STARLINK-4267,PAYLOAD,2023-08-09 11:27:52,15.08838574,0.0001215,53.218,298.3638,90.2612,269.8519,5.1703e-06,-2.06e-06,0.0,0 STARLINK-4267,1 52864U 22062AL  23221.47769367 -.00000206  00000-0  51703-5 0  9996,2 52864  53.2180 298.3638 0001215  90.2612 269.8519 15.08838574 64025,6917.885,95.438,540.59,538.909,0.0
52864.0,STARLINK-4267,PAYLOAD,2023-08-10 14:29:25,15.0885048,0.0001045,53.2169,293.3088,87.7911,272.3201,6.2492e-05,7.07e-06,0.0,0 STARLINK-4267,1 52864U 22062AL  23222.60376393  .00000707  00000-0  62492-4 0  9996,2 52864  53.2169 293.3088 0001045  87.7911 272.3201 15.08850480 64195,6917.848,95.437,540.436,538.99,0.0
52864.0,STARLINK-4267,PAYLOAD,2023-08-11 09:34:03,15.08839952,0.00012,53.2171,289.7407,91.3223,268.7906,9.7208e-05,1.26e-05,0.0,0 STARLINK-4267,1 52864U 22062AL  23223.39865006  .00001260  00000-0  97208-4 0  9995,2 52864  53.2171 289.7407 0001200  91.3223 268.7906 15.08839952 64318,6917.881,95.438,540.576,538.915,0.0
52864.0,STARLINK-4267,PAYLOAD,2023-08-12 11:00:13,15.08841245,0.0001248,53.2171,284.9817,93.7054,266.408,9.0613e-06,-1.44e-06,0.0,0 STARLINK-4267,1 52864U 22062AL  23224.45849098 -.00000144  00000-0  90613-5 0  9991,2 52864  53.2171 284.9817 0001248  93.7054 266.4080 15.08841245 64473,6917.877,95.437,540.605,538.878,0.0
52864.0,STARLINK-4267,PAYLOAD,2023-08-13 04:29:28,15.08832716,0.0001299,53.2174,281.7108,98.7673,261.3467,-2.933e-05,-7.55e-06,0.0,0 STARLINK-4267,1 52864U 22062AL  23225.18713762 -.00000755  00000-0 -29330-4 0  9996,2 52864  53.2174 281.7108 0001299  98.7673 261.3467 15.08832716 64580,6917.903,95.438,540.666,538.869,0.0
